COMMENT,ORIGINATOR,NORAD_CAT_ID,OBJECT_NAME,OBJECT_TYPE,CLASSIFICATION_TYPE,INTLDES,EPOCH,EPOCH_MICROSECONDS,MEAN_MOTION,ECCENTRICITY,INCLINATION,RA_OF_ASC_NODE,ARG_OF_PERICENTER,MEAN_ANOMALY,EPHEMERIS_TYPE,ELEMENT_SET_NO,REV_AT_EPOCH,BSTAR,MEAN_MOTION_DOT,MEAN_MOTION_DDOT,FILE,TLE_LINE0,TLE_LINE1,TLE_LINE2,OBJECT_ID,OBJECT_NUMBER,SEMIMAJOR_AXIS,PERIOD,APOGEE,PERIGEE
GENERATED VIA SPACETRACK.ORG API,18 SPCS,41616,FLOCK 2P 5,PAYLOAD,U,16040T,5/22/2018 19:02,826176,15.24323955,0.0009495,97.419,207.8896,340.8475,19.2404,0,999,10635,7.33E-05,1.72E-05,0,2288140,0 FLOCK 2P 5,1 41616U 16040T   18142.79341234 +.00001722 +00000-0 +73315-4 0  9993,2 41616 097.4190 207.8896 0009495 340.8475 019.2404 15.24323955106352,2016-040T,41616,6870.953,94.468,499.342,486.294
GENERATED VIA SPACETRACK.ORG API,18 SPCS,41616,FLOCK 2P 5,PAYLOAD,U,16040T,5/23/2018 7:38,503296,15.24326502,0.0009447,97.4189,208.4096,338.8327,21.2518,0,999,10643,7.71E-05,1.81E-05,0,2288413,0 FLOCK 2P 5,1 41616U 16040T   18143.31857064 +.00001814 +00000-0 +77056-4 0  9993,2 41616 097.4189 208.4096 0009447 338.8327 021.2518 15.24326502106438,2016-040T,41616,6870.945,94.467,499.301,486.319
GENERATED VIA SPACETRACK.ORG API,18 SPCS,41616,FLOCK 2P 5,PAYLOAD,U,16040T,5/23/2018 15:31,16288,15.24327801,0.000941,97.4189,208.7345,337.578,22.5044,0,999,10648,7.68E-05,1.81E-05,0,2288603,0 FLOCK 2P 5,1 41616U 16040T   18143.64679417 +.00001809 +00000-0 +76823-4 0  9998,2 41616 097.4189 208.7345 0009410 337.5780 022.5044 15.24327801106483,2016-040T,41616,6870.941,94.467,499.272,486.341
GENERATED VIA SPACETRACK.ORG API,18 SPCS,41616,FLOCK 2P 5,PAYLOAD,U,16040T,5/24/2018 5:42,319456,15.24329579,0.0009347,97.4188,209.3194,335.2913,24.7875,0,999,10657,7.38E-05,1.74E-05,0,2288797,0 FLOCK 2P 5,1 41616U 16040T   18144.23759629 +.00001735 +00000-0 +73809-4 0  9997,2 41616 097.4188 209.3194 0009347 335.2913 024.7875 15.24329579106573,2016-040T,41616,6870.936,94.467,499.223,486.379
GENERATED VIA SPACETRACK.ORG API,18 SPCS,41616,FLOCK 2P 5,PAYLOAD,U,16040T,5/24/2018 19:52,571648,15.24331103,0.0009289,97.4187,209.9043,333.0497,27.0257,0,999,10666,6.98E-05,1.64E-05,0,2288862,0 FLOCK 2P 5,1 41616U 16040T   18144.82839782  .00001635  00000-0  69750-4 0  9990,2 41616  97.4187 209.9043 0009289 333.0497  27.0257 15.24331103106665,2016-040T,41616,6870.931,94.467,499.179,486.414
GENERATED VIA SPACETRACK.ORG API,18 SPCS,41616,FLOCK 2P 5,PAYLOAD,U,16040T,5/25/2018 11:38,411872,15.24333487,0.0009223,97.4187,210.5542,330.5149,29.5567,0,999,10676,7.01E-05,1.64E-05,0,2289196,0 FLOCK 2P 5,1 41616U 16040T   18145.48484273 +.00001644 +00000-0 +70078-4 0  9999,2 41616 097.4187 210.5542 0009223 330.5149 029.5567 15.24333487106760,2016-040T,41616,6870.924,94.467,499.126,486.452
GENERATED VIA SPACETRACK.ORG API,18 SPCS,41616,FLOCK 2P 5,PAYLOAD,U,16040T,5/25/2018 19:30,841056,15.24334169,0.0009193,97.4187,210.8791,329.2683,30.8015,0,999,10681,6.76E-05,1.58E-05,0,2289484,0 FLOCK 2P 5,1 41616U 16040T   18145.81306529 +.00001583 +00000-0 +67618-4 0  9991,2 41616 097.4187 210.8791 0009193 329.2683 030.8015 15.24334169106810,2016-040T,41616,6870.922,94.467,499.103,486.471
GENERATED VIA SPACETRACK.ORG API,18 SPCS,41616,FLOCK 2P 5,PAYLOAD,U,16040T,5/26/2018 9:41,952416,15.24335593,0.0009134,97.4187,211.4641,326.921,33.1455,0,999,10690,6.45E-05,1.51E-05,0,2289539,0 FLOCK 2P 5,1 41616U 16040T   18146.40386519 +.00001506 +00000-0 +64461-4 0  9992,2 41616 097.4187 211.4641 0009134 326.9210 033.1455 15.24335593106902,2016-040T,41616,6870.918,94.467,499.059,486.507
GENERATED VIA SPACETRACK.ORG API,18 SPCS,41616,FLOCK 2P 5,PAYLOAD,U,16040T,5/26/2018 19:08,974816,15.24336905,0.0009092,97.4186,211.854,325.3723,34.6921,0,999,10696,6.44E-05,1.51E-05,0,2289741,0 FLOCK 2P 5,1 41616U 16040T   18146.79773119 +.00001505 +00000-0 +64426-4 0  9990,2 41616 097.4186 211.8540 0009092 325.3723 034.6921 15.24336905106966,2016-040T,41616,6870.914,94.467,499.026,486.532
GENERATED VIA SPACETRACK.ORG API,18 SPCS,41616,FLOCK 2P 5,PAYLOAD,U,16040T,5/27/2018 3:01,295136,15.24337977,0.000906,97.4185,212.1789,324.0264,36.0363,0,999,10701,6.40E-05,1.49E-05,0,2289865,0 FLOCK 2P 5,1 41616U 16040T   18147.12595249 +.00001494 +00000-0 +63969-4 0  9992,2 41616 097.4185 212.1789 0009060 324.0264 036.0363 15.24337977107018,2016-040T,41616,6870.911,94.467,499.001,486.551
GENERATED VIA SPACETRACK.ORG API,18 SPCS,41616,FLOCK 2P 5,PAYLOAD,U,16040T,5/27/2018 9:19,965216,15.24338811,0.0009038,97.4186,212.4389,322.991,37.0703,0,999,10705,6.44E-05,1.50E-05,0,2289920,0 FLOCK 2P 5,1 41616U 16040T   18147.38852969 +.00001504 +00000-0 +64358-4 0  9990,2 41616 097.4186 212.4389 0009038 322.9910 037.0703 15.24338811107059,2016-040T,41616,6870.908,94.467,498.983,486.563
GENERATED VIA SPACETRACK.ORG API,18 SPCS,41616,FLOCK 2P 5,PAYLOAD,U,16040T,5/27/2018 20:21,603296,15.24339715,0.0009009,97.4185,212.8938,321.1988,38.8601,0,999,10712,6.03E-05,1.41E-05,0,2290031,0 FLOCK 2P 5,1 41616U 16040T   18147.84803939 +.00001405 +00000-0 +60308-4 0  9995,2 41616 097.4185 212.8938 0009009 321.1988 038.8601 15.24339715107124,2016-040T,41616,6870.905,94.467,498.96,486.58
GENERATED VIA SPACETRACK.ORG API,18 SPCS,41616,FLOCK 2P 5,PAYLOAD,U,16040T,5/28/2018 5:48,536704,15.24340972,0.0008981,97.4185,213.2838,319.5802,40.4767,0,999,10718,6.02E-05,1.40E-05,0,2290330,0 FLOCK 2P 5,1 41616U 16040T   18148.24190436 +.00001403 +00000-0 +60244-4 0  9998,2 41616 097.4185 213.2838 0008981 319.5802 040.4767 15.24340972107187,2016-040T,41616,6870.902,94.467,498.937,486.596
GENERATED VIA SPACETRACK.ORG API,18 SPCS,41616,FLOCK 2P 5,PAYLOAD,U,16040T,5/28/2018 18:24,738624,15.24342478,0.0008927,97.4184,213.8036,317.4917,42.5628,0,999,10726,5.91E-05,1.38E-05,0,2290439,0 FLOCK 2P 5,1 41616U 16040T   18148.76705716  .00001376  00000-0  59140-4 0  9990,2 41616  97.4184 213.8036 0008927 317.4917  42.5628 15.24342478107267,2016-040T,41616,6870.897,94.466,498.896,486.628
GENERATED VIA SPACETRACK.ORG API,18 SPCS,41616,FLOCK 2P 5,PAYLOAD,U,16040T,5/29/2018 11:44,757344,15.24345381,0.0008879,97.4185,214.5185,314.586,45.4652,0,999,10737,6.24E-05,1.46E-05,0,2290734,0 FLOCK 2P 5,1 41616U 16040T   18149.48914071 +.00001457 +00000-0 +62442-4 0  9995,2 41616 097.4185 214.5185 0008879 314.5860 045.4652 15.24345381107379,2016-040T,41616,6870.888,94.466,498.854,486.653
GENERATED VIA SPACETRACK.ORG API,18 SPCS,41616,FLOCK 2P 5,PAYLOAD,U,16040T,5/29/2018 19:36,921280,15.24346563,0.0008855,97.4184,214.8434,313.2761,46.7736,0,999,10742,6.32E-05,1.48E-05,0,2290834,0 FLOCK 2P 5,1 41616U 16040T   18149.81736020  .00001476  00000-0  63218-4 0  9991,2 41616  97.4184 214.8434 0008855 313.2761  46.7736 15.24346563107424,2016-040T,41616,6870.885,94.466,498.834,486.666
GENERATED VIA SPACETRACK.ORG API,18 SPCS,41616,FLOCK 2P 5,PAYLOAD,U,16040T,5/29/2018 22:46,188928,15.24346935,0.0008837,97.4184,214.9734,312.704,47.3453,0,999,10744,6.31E-05,1.47E-05,0,2290861,0 FLOCK 2P 5,1 41616U 16040T   18149.94864802 +.00001473 +00000-0 +63070-4 0  9998,2 41616 097.4184 214.9734 0008837 312.7040 047.3453 15.24346935107440,2016-040T,41616,6870.884,94.466,498.82,486.677
GENERATED VIA SPACETRACK.ORG API,18 SPCS,41616,FLOCK 2P 5,PAYLOAD,U,16040T,5/30/2018 3:29,73984,15.24347657,0.0008827,97.4184,215.1684,311.9095,48.1389,0,999,10747,6.35E-05,1.48E-05,0,2291110,0 FLOCK 2P 5,1 41616U 16040T   18150.14557956 +.00001484 +00000-0 +63545-4 0  9990,2 41616 097.4184 215.1684 0008827 311.9095 048.1389 15.24347657107479,2016-040T,41616,6870.881,94.466,498.811,486.682
GENERATED VIA SPACETRACK.ORG API,18 SPCS,41616,FLOCK 2P 5,PAYLOAD,U,16040T,5/30/2018 22:23,585696,15.24350345,0.0008768,97.4183,215.9482,308.7202,51.3251,0,999,10759,6.57E-05,1.54E-05,0,2291227,0 FLOCK 2P 5,1 41616U 16040T   18150.93330539 +.00001537 +00000-0 +65690-4 0  9995,2 41616 097.4183 215.9482 0008768 308.7202 051.3251 15.24350345107595,2016-040T,41616,6870.873,94.466,498.763,486.714
GENERATED VIA SPACETRACK.ORG API,18 SPCS,41616,FLOCK 2P 5,PAYLOAD,U,16040T,5/31/2018 3:07,428416,15.24351176,0.0008763,97.4183,216.1432,307.9262,52.1182,0,999,10762,6.68E-05,1.56E-05,0,2291337,0 FLOCK 2P 5,1 41616U 16040T   18151.13023644  .00001564  00000-0  66780-4 0  9995,2 41616  97.4183 216.1432 0008763 307.9262  52.1182 15.24351176107624,2016-040T,41616,6870.871,94.466,498.757,486.715
GENERATED VIA SPACETRACK.ORG API,18 SPCS,41616,FLOCK 2P 5,PAYLOAD,U,16040T,5/31/2018 17:18,942752,15.24354145,0.0008723,97.4182,216.728,305.5111,54.5312,0,999,10771,7.47E-05,1.76E-05,0,2291588,0 FLOCK 2P 5,1 41616U 16040T   18151.72102943 +.00001758 +00000-0 +74719-4 0  9996,2 41616 097.4182 216.7280 0008723 305.5111 054.5312 15.24354145107713,2016-040T,41616,6870.862,94.466,498.72,486.734
GENERATED VIA SPACETRACK.ORG API,18 SPCS,41616,FLOCK 2P 5,PAYLOAD,U,16040T,6/1/2018 4:19,135008,15.24356576,0.0008708,97.4182,217.183,303.5754,56.4651,0,999,10778,8.01E-05,1.89E-05,0,2291863,0 FLOCK 2P 5,1 41616U 16040T   18152.18053397 +.00001890 +00000-0 +80094-4 0  9995,2 41616 097.4182 217.1830 0008708 303.5754 056.4651 15.24356576107787,2016-040T,41616,6870.855,94.466,498.703,486.737
GENERATED VIA SPACETRACK.ORG API,18 SPCS,41616,FLOCK 2P 5,PAYLOAD,U,16040T,6/1/2018 21:39,630144,15.24362317,0.0008634,97.4176,217.8979,300.5001,59.5384,0,999,10789,0.00012069,2.89E-05,0,2291991,0 FLOCK 2P 5,1 41616U 16040T   18152.90261146 +.00002885 +00000-0 +12069-3 0  9999,2 41616 097.4176 217.8979 0008634 300.5001 059.5384 15.24362317107890,2016-040T,41616,6870.837,94.465,498.635,486.77
GENERATED VIA SPACETRACK.ORG API,18 SPCS,41616,FLOCK 2P 5,PAYLOAD,U,16040T,6/2/2018 10:15,317120,15.24363586,0.0008602,97.4176,218.4178,298.3008,61.7361,0,999,10797,0.00010943,2.61E-05,0,2292399,0 FLOCK 2P 5,1 41616U 16040T   18153.42775830 +.00002609 +00000-0 +10943-3 0  9990,2 41616 097.4176 218.4178 0008602 298.3008 061.7361 15.24363586107972,2016-040T,41616,6870.834,94.465,498.609,486.788
